{"fetched_at":"2026-03-29T02:12:04Z","count":15717,"tles":[{"name":"USA 157 (MILSTAR-2 2)","line1":"1 26715U 01009A   26087.51711637  .00000096  00000+0  00000+0 0  9998","line2":"2 26715  11.4555  20.2578 0037660 181.3470  20.4758  1.00276658 32134","category":"Military"}]}