{
  "norad_id": 26715,
  "name": "USA 157 (MILSTAR-2 2)",
  "history": [
    {
      "epoch": "2026-03-28T12:24:38.854368",
      "apogee_km": 35944.016173838485,
      "perigee_km": 35626.4417015956,
      "latitude_deg": 11.435430160294697,
      "longitude_deg": 141.14317151997238,
      "semi_major_axis_km": 42163.36593771705,
      "eccentricity": 0.003766,
      "inclination_deg": 11.4555,
      "raan_deg": 20.2578,
      "arg_perigee_deg": 181.347,
      "mean_anomaly_deg": 20.4758,
      "mean_motion_rev_day": 1.00276658
    }
  ]
}